[{"OBJECT_NAME":"STARLINK-4194","OBJECT_ID":"2022-076Q","EPOCH":"2026-03-09T08:35:47.336928","MEAN_MOTION":15.08836645,"ECCENTRICITY":0.000135,"INCLINATION":53.2168,"RA_OF_ASC_NODE":95.6096,"ARG_OF_PERICENTER":100.9151,"MEAN_ANOMALY":259.1993,"EPHEMERIS_TYPE":0,"CLASSIFICATION_TYPE":"U","NORAD_CAT_ID":53000,"ELEMENT_SET_NO":999,"REV_AT_EPOCH":20279,"BSTAR":-2.0275785e-5,"MEAN_MOTION_DOT":-6.11e-6,"MEAN_MOTION_DDOT":0},{"OBJECT_NAME":"RAPIDEYE 3","OBJECT_ID":"2008-040D","EPOCH":"2026-03-09T19:34:21.496512","MEAN_MOTION":15.06489596,"ECCENTRICITY":0.00114187,"INCLINATION":97.3959,"RA_OF_ASC_NODE":102.9968,"ARG_OF_PERICENTER":27.1842,"MEAN_ANOMALY":332.9981,"EPHEMERIS_TYPE":0,"CLASSIFICATION_TYPE":"U","NORAD_CAT_ID":33315,"ELEMENT_SET_NO":999,"REV_AT_EPOCH":95131,"BSTAR":0.00019030529,"MEAN_MOTION_DOT":2.754e-5,"MEAN_MOTION_DDOT":0}]
